{
  "type": "FeatureCollection",
  "features": [
    {
      "type": "Feature",
      "properties": {
        "norad_id": 32275,
        "name": "COSMOS 2433 (720)",
        "group": "glo-ops",
        "lat": 64.9158546915127,
        "lon": 36.90552240722122,
        "alt_km": 19136.026129556718,
        "timestamp": "2025-12-20T05:41:50.291231+00:00",
        "meta_object_name": "COSMOS 2433 (720)",
        "meta_object_id": "2007-052A",
        "meta_epoch": "2025-12-19T04:33:13.000320",
        "meta_mean_motion": 2.13104199,
        "meta_eccentricity": 0.0005237,
        "meta_inclination": 65.6796,
        "meta_ra_of_asc_node": 321.9886,
        "meta_arg_of_pericenter": 255.1824,
        "meta_mean_anomaly": 104.7517,
        "meta_ephemeris_type": 0,
        "meta_classification_type": "U",
        "meta_norad_cat_id": 32275,
        "meta_element_set_no": 999,
        "meta_rev_at_epoch": 14122,
        "meta_bstar": 0,
        "meta_mean_motion_dot": -5.9e-07,
        "meta_mean_motion_ddot": 0,
        "tle_line1": "1 32275U 07052A   25353.18973380 -.00000059  00000+0  00000+0 0  9993",
        "tle_line2": "2 32275  65.6796 321.9886 0005237 255.1824 104.7517  2.13104199141226"
      },
      "geometry": {
        "type": "Point",
        "coordinates": [
          36.90552240722122,
          64.9158546915127
        ]
      }
    },
    {
      "type": "Feature",
      "properties": {
        "norad_id": 32276,
        "name": "COSMOS 2432 (719)",
        "group": "glo-ops",
        "lat": 25.545774160544305,
        "lon": -25.469458719858746,
        "alt_km": 19119.19107153071,
        "timestamp": "2025-12-20T05:41:50.291255+00:00",
        "meta_object_name": "COSMOS 2432 (719)",
        "meta_object_id": "2007-052B",
        "meta_epoch": "2025-12-19T12:16:13.975104",
        "meta_mean_motion": 2.13103394,
        "meta_eccentricity": 0.0011354,
        "meta_inclination": 65.6952,
        "meta_ra_of_asc_node": 322.1022,
        "meta_arg_of_pericenter": 313.8406,
        "meta_mean_anomaly": 237.2136,
        "meta_ephemeris_type": 0,
        "meta_classification_type": "U",
        "meta_norad_cat_id": 32276,
        "meta_element_set_no": 999,
        "meta_rev_at_epoch": 14125,
        "meta_bstar": 0,
        "meta_mean_motion_dot": -5.7e-07,
        "meta_mean_motion_ddot": 0,
        "tle_line1": "1 32276U 07052B   25353.51127286 -.00000057  00000+0  00000+0 0  9995",
        "tle_line2": "2 32276  65.6952 322.1022 0011354 313.8406 237.2136  2.13103394141259"
      },
      "geometry": {
        "type": "Point",
        "coordinates": [
          -25.469458719858746,
          25.545774160544305
        ]
      }
    },
    {
      "type": "Feature",
      "properties": {
        "norad_id": 32393,
        "name": "COSMOS 2434 (721)",
        "group": "glo-ops",
        "lat": -23.143146126293363,
        "lon": -173.92186951404028,
        "alt_km": 19134.744767604367,
        "timestamp": "2025-12-20T05:41:50.291270+00:00",
        "meta_object_name": "COSMOS 2434 (721)",
        "meta_object_id": "2007-065A",
        "meta_epoch": "2025-12-19T19:17:09.813120",
        "meta_mean_motion": 2.13101403,
        "meta_eccentricity": 0.00046358,
        "meta_inclination": 64.315,
        "meta_ra_of_asc_node": 197.9648,
        "meta_arg_of_pericenter": 71.2992,
        "meta_mean_anomaly": 290.1665,
        "meta_ephemeris_type": 0,
        "meta_classification_type": "U",
        "meta_norad_cat_id": 32393,
        "meta_element_set_no": 999,
        "meta_rev_at_epoch": 13995,
        "meta_bstar": 0,
        "meta_mean_motion_dot": 1.03e-06,
        "meta_mean_motion_ddot": 0,
        "tle_line1": "1 32393U 07065A   25353.80358580  .00000103  00000+0  00000+0 0  9995",
        "tle_line2": "2 32393  64.3150 197.9648 0004635  71.2992 290.1665  2.13101403139954"
      },
      "geometry": {
        "type": "Point",
        "coordinates": [
          -173.92186951404028,
          -23.143146126293363
        ]
      }
    },
    {
      "type": "Feature",
      "properties": {
        "norad_id": 32395,
        "name": "COSMOS 2436 (723)",
        "group": "glo-ops",
        "lat": 59.258388435842555,
        "lon": -36.000193417288706,
        "alt_km": 19129.374655869127,
        "timestamp": "2025-12-20T05:41:50.291284+00:00",
        "meta_object_name": "COSMOS 2436 (723)",
        "meta_object_id": "2007-065C",
        "meta_epoch": "2025-12-19T09:42:12.629376",
        "meta_mean_motion": 2.13100261,
        "meta_eccentricity": 0.0017823,
        "meta_inclination": 64.3238,
        "meta_ra_of_asc_node": 198.0487,
        "meta_arg_of_pericenter": 9.8735,
        "meta_mean_anomaly": 178.3327,
        "meta_ephemeris_type": 0,
        "meta_classification_type": "U",
        "meta_norad_cat_id": 32395,
        "meta_element_set_no": 999,
        "meta_rev_at_epoch": 13989,
        "meta_bstar": 0,
        "meta_mean_motion_dot": 1.05e-06,
        "meta_mean_motion_ddot": 0,
        "tle_line1": "1 32395U 07065C   25353.40431284  .00000105  00000+0  00000+0 0  9998",
        "tle_line2": "2 32395  64.3238 198.0487 0017823   9.8735 178.3327  2.13100261139897"
      },
      "geometry": {
        "type": "Point",
        "coordinates": [
          -36.000193417288706,
          59.258388435842555
        ]
      }
    },
    {
      "type": "Feature",
      "properties": {
        "norad_id": 36111,
        "name": "COSMOS 2456 (730)",
        "group": "glo-ops",
        "lat": 42.8063053571587,
        "lon": -128.5827583208988,
        "alt_km": 19132.898302447506,
        "timestamp": "2025-12-20T05:41:50.291296+00:00",
        "meta_object_name": "COSMOS 2456 (730)",
        "meta_object_id": "2009-070A",
        "meta_epoch": "2025-12-19T16:51:58.589280",
        "meta_mean_motion": 2.13103691,
        "meta_eccentricity": 0.00032664,
        "meta_inclination": 64.904,
        "meta_ra_of_asc_node": 77.0998,
        "meta_arg_of_pericenter": 297.1615,
        "meta_mean_anomaly": 144.0755,
        "meta_ephemeris_type": 0,
        "meta_classification_type": "U",
        "meta_norad_cat_id": 36111,
        "meta_element_set_no": 999,
        "meta_rev_at_epoch": 12460,
        "meta_bstar": 0,
        "meta_mean_motion_dot": -2.7e-07,
        "meta_mean_motion_ddot": 0,
        "tle_line1": "1 36111U 09070A   25353.70276145 -.00000027  00000+0  00000+0 0  9996",
        "tle_line2": "2 36111  64.9040  77.0998 0003266 297.1615 144.0755  2.13103691124600"
      },
      "geometry": {
        "type": "Point",
        "coordinates": [
          -128.5827583208988,
          42.8063053571587
        ]
      }
    },
    {
      "type": "Feature",
      "properties": {
        "norad_id": 36112,
        "name": "COSMOS 2457 (733)",
        "group": "glo-ops",
        "lat": -63.288243437344775,
        "lon": -34.577323707925785,
        "alt_km": 19138.39953915921,
        "timestamp": "2025-12-20T05:41:50.291329+00:00",
        "meta_object_name": "COSMOS 2457 (733)",
        "meta_object_id": "2009-070B",
        "meta_epoch": "2025-12-19T12:47:22.832160",
        "meta_mean_motion": 2.13101086,
        "meta_eccentricity": 0.0004579,
        "meta_inclination": 64.8894,
        "meta_ra_of_asc_node": 76.9529,
        "meta_arg_of_pericenter": 161.1215,
        "meta_mean_anomaly": 278.8833,
        "meta_ephemeris_type": 0,
        "meta_classification_type": "U",
        "meta_norad_cat_id": 36112,
        "meta_element_set_no": 999,
        "meta_rev_at_epoch": 12460,
        "meta_bstar": 0,
        "meta_mean_motion_dot": -2.8e-07,
        "meta_mean_motion_ddot": 0,
        "tle_line1": "1 36112U 09070B   25353.53290315 -.00000028  00000+0  00000+0 0  9994",
        "tle_line2": "2 36112  64.8894  76.9529 0004579 161.1215 278.8833  2.13101086124608"
      },
      "geometry": {
        "type": "Point",
        "coordinates": [
          -34.577323707925785,
          -63.288243437344775
        ]
      }
    },
    {
      "type": "Feature",
      "properties": {
        "norad_id": 36402,
        "name": "COSMOS 2460 (732)",
        "group": "glo-ops",
        "lat": -63.70620335804213,
        "lon": -152.35878864990258,
        "alt_km": 19130.022137981712,
        "timestamp": "2025-12-20T05:41:50.291356+00:00",
        "meta_object_name": "COSMOS 2460 (732)",
        "meta_object_id": "2010-007C",
        "meta_epoch": "2025-12-19T13:42:43.098624",
        "meta_mean_motion": 2.131063,
        "meta_eccentricity": 0.0002543,
        "meta_inclination": 65.526,
        "meta_ra_of_asc_node": 320.5423,
        "meta_arg_of_pericenter": 279.9868,
        "meta_mean_anomaly": 189.087,
        "meta_ephemeris_type": 0,
        "meta_classification_type": "U",
        "meta_norad_cat_id": 36402,
        "meta_element_set_no": 999,
        "meta_rev_at_epoch": 12290,
        "meta_bstar": 0,
        "meta_mean_motion_dot": -5.7e-07,
        "meta_mean_motion_ddot": 0,
        "tle_line1": "1 36402U 10007C   25353.57133216 -.00000057  00000+0  00000+0 0  9990",
        "tle_line2": "2 36402  65.5260 320.5423 0002543 279.9868 189.0870  2.13106300122906"
      },
      "geometry": {
        "type": "Point",
        "coordinates": [
          -152.35878864990258,
          -63.70620335804213
        ]
      }
    }
  ]
}